[{"OBJECT_NAME":"STARLINK-5244","OBJECT_ID":"2022-141AU","EPOCH":"2026-03-09T04:34:39.014976","MEAN_MOTION":15.08852187,"ECCENTRICITY":0.00013737,"INCLINATION":53.2193,"RA_OF_ASC_NODE":356.2817,"ARG_OF_PERICENTER":81.6267,"MEAN_ANOMALY":278.4881,"EPHEMERIS_TYPE":0,"CLASSIFICATION_TYPE":"U","NORAD_CAT_ID":54199,"ELEMENT_SET_NO":999,"REV_AT_EPOCH":18592,"BSTAR":1.5310492e-5,"MEAN_MOTION_DOT":-4.4e-7,"MEAN_MOTION_DDOT":0},{"OBJECT_NAME":"DELTA 1 DEB","OBJECT_ID":"1972-058BG","EPOCH":"2026-03-09T20:01:49.581696","MEAN_MOTION":14.88535429,"ECCENTRICITY":0.00965988,"INCLINATION":98.8237,"RA_OF_ASC_NODE":167.9558,"ARG_OF_PERICENTER":346.289,"MEAN_ANOMALY":13.5703,"EPHEMERIS_TYPE":0,"CLASSIFICATION_TYPE":"U","NORAD_CAT_ID":7890,"ELEMENT_SET_NO":999,"REV_AT_EPOCH":62566,"BSTAR":0.0011014398,"MEAN_MOTION_DOT":0.00011112,"MEAN_MOTION_DDOT":0}]
